HULIANWANG DIGUI-142    
1 67440U 26007F   26024.88856232 -.00000117  00000+0  23419-4 0  9994
2 67440  50.0160 249.5820 0002139 286.5613  73.5050 13.89885362  1577
HULIANWANG DIGUI-143    
1 67441U 26007G   26024.88753917  .00000117  00000+0  21190-3 0  9993
2 67441  50.0102 249.5769 0001565 200.2940 159.7897 13.90046772  1576
HULIANWANG DIGUI-144    
1 67442U 26007H   26024.88637889  .00000094  00000+0  19272-3 0  9995
2 67442  50.0112 249.5685 0001781 310.1669  49.9073 13.90447710  1577
HULIANWANG DIGUI-145    
1 67443U 26007J   26024.88471267  .00000130  00000+0  22007-3 0  9993
2 67443  49.9806 249.6254 0008970  27.5132 332.6240 13.90781533  1571
CZ-8A R/B               
1 67444U 26007K   26025.35318464  .00000182  00000+0  17146-3 0  9991
2 67444  50.0087 246.0319 0092173 123.2452 237.7331 14.13548138  1659
STARLINK-36542          
1 67445U 26008A   26025.50002314 -.01114639  00000+0 -38497-2 0  9991
2 67445  43.0008  96.0406 0001303 287.5158 238.9956 15.91021420  2853
STARLINK-36539          
1 67446U 26008B   26025.50002314 -.01115963  00000+0 -38478-2 0  9992
2 67446  43.0008  96.0339 0001387 285.6966 243.4497 15.91055784  2858
STARLINK-36440          
1 67447U 26008C   26025.50002314 -.01131034  00000+0 -38969-2 0  9995
2 67447  43.0008  96.0271 0001305 284.8588 247.1332 15.91105216  2850
STARLINK-36423          
1 67448U 26008D   26025.50002314 -.01131861  00000+0 -38929-2 0  9990
2 67448  43.0009  96.0202 0001388 286.1928 248.3614 15.91139638  2851
STARLINK-36519          
1 67449U 26008E   26025.50002314 -.01147166  00000+0 -39437-2 0  9991
2 67449  43.0009  96.0132 0001242 285.0922 252.2395 15.91185821  2850
STARLINK-36525          
1 67450U 26008F   26025.50002314 -.01153622  00000+0 -39602-2 0  9991
2 67450  43.0006  96.0049 0001256 286.3076 254.2612 15.91227745  2851
STARLINK-36511          
1 67451U 26008G   26025.50002314 -.01326385  50294-3 -40107-2 0  9996
2 67451  43.0007  95.9967 0001289 285.8063 258.1115 15.91275842  2858
