CCSDS_OMM_VERS = 2.0
CREATION_DATE  = 
ORIGINATOR     = 

OBJECT_NAME    = HULIANWANG DIGUI-142
OBJECT_ID      = 2026-007F
CENTER_NAME    = EARTH
REF_FRAME      = TEME
TIME_SYSTEM    = UTC
MEAN_ELEMENT_THEORY = SGP/SGP4

EPOCH          = 2026-01-24T21:19:31.784448
MEAN_MOTION    = 13.89885362
ECCENTRICITY   = .00021392
INCLINATION    = 50.0160
RA_OF_ASC_NODE = 249.5820
ARG_OF_PERICENTER = 286.5613
MEAN_ANOMALY   = 73.5050

EPHEMERIS_TYPE = 0
CLASSIFICATION_TYPE = U
NORAD_CAT_ID   = 67440
ELEMENT_SET_NO = 999
REV_AT_EPOCH   = 157
BSTAR          = .23419409E-4
MEAN_MOTION_DOT = -.117E-5
MEAN_MOTION_DDOT = 0

CCSDS_OMM_VERS = 2.0
CREATION_DATE  = 
ORIGINATOR     = 

OBJECT_NAME    = HULIANWANG DIGUI-143
OBJECT_ID      = 2026-007G
CENTER_NAME    = EARTH
REF_FRAME      = TEME
TIME_SYSTEM    = UTC
MEAN_ELEMENT_THEORY = SGP/SGP4

EPOCH          = 2026-01-24T21:18:03.384288
MEAN_MOTION    = 13.90046772
ECCENTRICITY   = .00015659
INCLINATION    = 50.0102
RA_OF_ASC_NODE = 249.5769
ARG_OF_PERICENTER = 200.2940
MEAN_ANOMALY   = 159.7897

EPHEMERIS_TYPE = 0
CLASSIFICATION_TYPE = U
NORAD_CAT_ID   = 67441
ELEMENT_SET_NO = 999
REV_AT_EPOCH   = 157
BSTAR          = .21190435E-3
MEAN_MOTION_DOT = .117E-5
MEAN_MOTION_DDOT = 0

CCSDS_OMM_VERS = 2.0
CREATION_DATE  = 
ORIGINATOR     = 

OBJECT_NAME    = HULIANWANG DIGUI-144
OBJECT_ID      = 2026-007H
CENTER_NAME    = EARTH
REF_FRAME      = TEME
TIME_SYSTEM    = UTC
MEAN_ELEMENT_THEORY = SGP/SGP4

EPOCH          = 2026-01-24T21:16:23.136096
MEAN_MOTION    = 13.90447710
ECCENTRICITY   = .00017812
INCLINATION    = 50.0112
RA_OF_ASC_NODE = 249.5685
ARG_OF_PERICENTER = 310.1669
MEAN_ANOMALY   = 49.9073

EPHEMERIS_TYPE = 0
CLASSIFICATION_TYPE = U
NORAD_CAT_ID   = 67442
ELEMENT_SET_NO = 999
REV_AT_EPOCH   = 157
BSTAR          = .19272294E-3
MEAN_MOTION_DOT = .94E-6
MEAN_MOTION_DDOT = 0

CCSDS_OMM_VERS = 2.0
CREATION_DATE  = 
ORIGINATOR     = 

OBJECT_NAME    = HULIANWANG DIGUI-145
OBJECT_ID      = 2026-007J
CENTER_NAME    = EARTH
REF_FRAME      = TEME
TIME_SYSTEM    = UTC
MEAN_ELEMENT_THEORY = SGP/SGP4

EPOCH          = 2026-01-24T21:13:59.174688
MEAN_MOTION    = 13.90781533
ECCENTRICITY   = .00089706
INCLINATION    = 49.9806
RA_OF_ASC_NODE = 249.6254
ARG_OF_PERICENTER = 27.5132
MEAN_ANOMALY   = 332.6240

EPHEMERIS_TYPE = 0
CLASSIFICATION_TYPE = U
NORAD_CAT_ID   = 67443
ELEMENT_SET_NO = 999
REV_AT_EPOCH   = 157
BSTAR          = .22007044E-3
MEAN_MOTION_DOT = .13E-5
MEAN_MOTION_DDOT = 0

CCSDS_OMM_VERS = 2.0
CREATION_DATE  = 
ORIGINATOR     = 

OBJECT_NAME    = CZ-8A R/B
OBJECT_ID      = 2026-007K
CENTER_NAME    = EARTH
REF_FRAME      = TEME
TIME_SYSTEM    = UTC
MEAN_ELEMENT_THEORY = SGP/SGP4

EPOCH          = 2026-01-25T08:28:35.152896
MEAN_MOTION    = 14.13548138
ECCENTRICITY   = .0092173
INCLINATION    = 50.0087
RA_OF_ASC_NODE = 246.0319
ARG_OF_PERICENTER = 123.2452
MEAN_ANOMALY   = 237.7331

EPHEMERIS_TYPE = 0
CLASSIFICATION_TYPE = U
NORAD_CAT_ID   = 67444
ELEMENT_SET_NO = 999
REV_AT_EPOCH   = 165
BSTAR          = .17146E-3
MEAN_MOTION_DOT = .182E-5
MEAN_MOTION_DDOT = 0

CCSDS_OMM_VERS = 2.0
CREATION_DATE  = 
ORIGINATOR     = 

OBJECT_NAME    = STARLINK-36542
OBJECT_ID      = 2026-008A
CENTER_NAME    = EARTH
REF_FRAME      = TEME
TIME_SYSTEM    = UTC
MEAN_ELEMENT_THEORY = SGP/SGP4

EPOCH          = 2026-01-25T12:00:01.999296
MEAN_MOTION    = 15.91021420
ECCENTRICITY   = .0001303
INCLINATION    = 43.0008
RA_OF_ASC_NODE = 96.0406
ARG_OF_PERICENTER = 287.5158
MEAN_ANOMALY   = 238.9956

EPHEMERIS_TYPE = 0
CLASSIFICATION_TYPE = U
NORAD_CAT_ID   = 67445
ELEMENT_SET_NO = 999
REV_AT_EPOCH   = 285
BSTAR          = -.38497E-2
MEAN_MOTION_DOT = -.1114639E-1
MEAN_MOTION_DDOT = 0

CCSDS_OMM_VERS = 2.0
CREATION_DATE  = 
ORIGINATOR     = 

OBJECT_NAME    = STARLINK-36539
OBJECT_ID      = 2026-008B
CENTER_NAME    = EARTH
REF_FRAME      = TEME
TIME_SYSTEM    = UTC
MEAN_ELEMENT_THEORY = SGP/SGP4

EPOCH          = 2026-01-25T12:00:01.999296
MEAN_MOTION    = 15.91055784
ECCENTRICITY   = .0001387
INCLINATION    = 43.0008
RA_OF_ASC_NODE = 96.0339
ARG_OF_PERICENTER = 285.6966
MEAN_ANOMALY   = 243.4497

EPHEMERIS_TYPE = 0
CLASSIFICATION_TYPE = U
NORAD_CAT_ID   = 67446
ELEMENT_SET_NO = 999
REV_AT_EPOCH   = 285
BSTAR          = -.38478E-2
MEAN_MOTION_DOT = -.1115963E-1
MEAN_MOTION_DDOT = 0

CCSDS_OMM_VERS = 2.0
CREATION_DATE  = 
ORIGINATOR     = 

OBJECT_NAME    = STARLINK-36440
OBJECT_ID      = 2026-008C
CENTER_NAME    = EARTH
REF_FRAME      = TEME
TIME_SYSTEM    = UTC
MEAN_ELEMENT_THEORY = SGP/SGP4

EPOCH          = 2026-01-25T12:00:01.999296
MEAN_MOTION    = 15.91105216
ECCENTRICITY   = .0001305
INCLINATION    = 43.0008
RA_OF_ASC_NODE = 96.0271
ARG_OF_PERICENTER = 284.8588
MEAN_ANOMALY   = 247.1332

EPHEMERIS_TYPE = 0
CLASSIFICATION_TYPE = U
NORAD_CAT_ID   = 67447
ELEMENT_SET_NO = 999
REV_AT_EPOCH   = 285
BSTAR          = -.38969E-2
MEAN_MOTION_DOT = -.1131034E-1
MEAN_MOTION_DDOT = 0

CCSDS_OMM_VERS = 2.0
CREATION_DATE  = 
ORIGINATOR     = 

OBJECT_NAME    = STARLINK-36423
OBJECT_ID      = 2026-008D
CENTER_NAME    = EARTH
REF_FRAME      = TEME
TIME_SYSTEM    = UTC
MEAN_ELEMENT_THEORY = SGP/SGP4

EPOCH          = 2026-01-25T12:00:01.999296
MEAN_MOTION    = 15.91139638
ECCENTRICITY   = .0001388
INCLINATION    = 43.0009
RA_OF_ASC_NODE = 96.0202
ARG_OF_PERICENTER = 286.1928
MEAN_ANOMALY   = 248.3614

EPHEMERIS_TYPE = 0
CLASSIFICATION_TYPE = U
NORAD_CAT_ID   = 67448
ELEMENT_SET_NO = 999
REV_AT_EPOCH   = 285
BSTAR          = -.38929E-2
MEAN_MOTION_DOT = -.1131861E-1
MEAN_MOTION_DDOT = 0

CCSDS_OMM_VERS = 2.0
CREATION_DATE  = 
ORIGINATOR     = 

OBJECT_NAME    = STARLINK-36519
OBJECT_ID      = 2026-008E
CENTER_NAME    = EARTH
REF_FRAME      = TEME
TIME_SYSTEM    = UTC
MEAN_ELEMENT_THEORY = SGP/SGP4

EPOCH          = 2026-01-25T12:00:01.999296
MEAN_MOTION    = 15.91185821
ECCENTRICITY   = .0001242
INCLINATION    = 43.0009
RA_OF_ASC_NODE = 96.0132
ARG_OF_PERICENTER = 285.0922
MEAN_ANOMALY   = 252.2395

EPHEMERIS_TYPE = 0
CLASSIFICATION_TYPE = U
NORAD_CAT_ID   = 67449
ELEMENT_SET_NO = 999
REV_AT_EPOCH   = 285
BSTAR          = -.39437E-2
MEAN_MOTION_DOT = -.1147166E-1
MEAN_MOTION_DDOT = 0

CCSDS_OMM_VERS = 2.0
CREATION_DATE  = 
ORIGINATOR     = 

OBJECT_NAME    = STARLINK-36525
OBJECT_ID      = 2026-008F
CENTER_NAME    = EARTH
REF_FRAME      = TEME
TIME_SYSTEM    = UTC
MEAN_ELEMENT_THEORY = SGP/SGP4

EPOCH          = 2026-01-25T12:00:01.999296
MEAN_MOTION    = 15.91227745
ECCENTRICITY   = .0001256
INCLINATION    = 43.0006
RA_OF_ASC_NODE = 96.0049
ARG_OF_PERICENTER = 286.3076
MEAN_ANOMALY   = 254.2612

EPHEMERIS_TYPE = 0
CLASSIFICATION_TYPE = U
NORAD_CAT_ID   = 67450
ELEMENT_SET_NO = 999
REV_AT_EPOCH   = 285
BSTAR          = -.39602E-2
MEAN_MOTION_DOT = -.1153622E-1
MEAN_MOTION_DDOT = 0

CCSDS_OMM_VERS = 2.0
CREATION_DATE  = 
ORIGINATOR     = 

OBJECT_NAME    = STARLINK-36511
OBJECT_ID      = 2026-008G
CENTER_NAME    = EARTH
REF_FRAME      = TEME
TIME_SYSTEM    = UTC
MEAN_ELEMENT_THEORY = SGP/SGP4

EPOCH          = 2026-01-25T12:00:01.999296
MEAN_MOTION    = 15.91275842
ECCENTRICITY   = .0001289
INCLINATION    = 43.0007
RA_OF_ASC_NODE = 95.9967
ARG_OF_PERICENTER = 285.8063
MEAN_ANOMALY   = 258.1115

EPHEMERIS_TYPE = 0
CLASSIFICATION_TYPE = U
NORAD_CAT_ID   = 67451
ELEMENT_SET_NO = 999
REV_AT_EPOCH   = 285
BSTAR          = -.40107E-2
MEAN_MOTION_DOT = -.1326385E-1
MEAN_MOTION_DDOT = .50294E-3

